     2.100          NAVIGATION                              RINEX VERSION / TYPE
fic2rin                                 07/14/2012 00:18:42 PGM / RUN BY / DATE
                                                            END OF HEADER
17 12  7 13  2  0  0.0  .113847199827D-03 -.295585778076D-11  .000000000000D+00
     .590000000000D+02 -.111562500000D+02  .471841082646D-08 -.111132417509D+01
    -.419095158577D-06  .741353339981D-02  .714696943760D-05  .515370719528D+04
     .439200000000D+06  .100582838058D-06 -.299477425367D+01  .100582838058D-06
     .963559593405D+00  .242218750000D+03 -.229396033711D+01 -.801319092442D-08
     .358229207399D-09  .100000000000D+01  .169600000000D+04  .000000000000D+00
     .240000000000D+01  .000000000000D+00 -.107102096081D-07  .590000000000D+02
     .432006000000D+06  .400000000000D+01
18 12  7 13  2  0  0.0  .204959418625D-03  .181898940355D-11  .000000000000D+00
     .370000000000D+02  .569062500000D+02  .529129183211D-08  .358098725529D+00
     .313669443130D-05  .135583620286D-01  .848248600960D-05  .515371046066D+04
     .439200000000D+06 -.145286321640D-06 -.928669254688D+00  .165775418282D-06
     .929166923326D+00  .201531250000D+03 -.216329384162D+01 -.851928343378D-08
    -.341085636157D-09  .100000000000D+01  .169600000000D+04  .000000000000D+00
     .240000000000D+01  .000000000000D+00 -.107102096081D-07  .370000000000D+02
     .432006000000D+06  .400000000000D+01
19 12  7 13  2  0  0.0 -.284119974822D-03 -.363797880709D-11  .000000000000D+00
     .200000000000D+02 -.169687500000D+02  .477769901034D-08 -.193750243952D+01
    -.115856528282D-05  .849589519203D-02  .726617872715D-05  .515359339523D+04
     .439200000000D+06  .335276126862D-07 -.294190021619D+01 -.160187482834D-06
     .960898779485D+00  .240062500000D+03  .198686123846D+00 -.800997650482D-08
     .411802867528D-09  .100000000000D+01  .169600000000D+04  .000000000000D+00
     .240000000000D+01  .000000000000D+00 -.144354999065D-07  .200000000000D+02
     .432006000000D+06  .400000000000D+01
20 12  7 13  2  0  0.0  .647311098874D-04  .454747350886D-12  .000000000000D+00
     .790000000000D+02  .483125000000D+02  .515664336632D-08  .742802970165D+00
     .253133475780D-05  .491580367088D-02  .948831439018D-05  .515367564964D+04
     .439200000000D+06 -.707805156708D-07 -.982369851122D+00  .316649675369D-07
     .929636718987D+00  .179218750000D+03  .128863463735D+01 -.836177687300D-08
    -.294297972978D-09  .100000000000D+01  .169600000000D+04  .000000000000D+00
     .240000000000D+01  .000000000000D+00 -.791624188423D-08  .790000000000D+02
     .432006000000D+06  .400000000000D+01
21 12  7 13  2  0  0.0 -.236203894019D-03 -.250111042988D-11  .000000000000D+00
     .800000000000D+02 -.121875000000D+02  .556701760291D-08  .146681595573D+01
    -.640749931335D-06  .192803487880D-01  .804290175438D-05  .515358957672D+04
     .439200000000D+06 -.450760126114D-06 -.197943956392D+01  .875443220139D-07
     .931120833286D+00  .217375000000D+03 -.223498606437D+01 -.858464329914D-08
    -.286440502825D-09  .100000000000D+01  .169600000000D+04  .000000000000D+00
     .340000000000D+01  .000000000000D+00 -.111758708954D-07  .800000000000D+02
     .432006000000D+06  .400000000000D+01
22 12  7 13  2  0  0.0  .145417172462D-03  .454747350886D-12  .000000000000D+00
     .790000000000D+02  .651875000000D+02  .526236205565D-08 -.436280691333D+00
     .332668423653D-05  .627500470728D-02  .857934355736D-05  .515368082047D+04
     .439200000000D+06 -.521540641785D-07 -.925386378743D+00  .447034835815D-07
     .926892998574D+00  .194031250000D+03 -.201400608133D+01 -.845249493748D-08
    -.288226291496D-09  .100000000000D+01  .169600000000D+04  .000000000000D+00
     .340000000000D+01  .000000000000D+00 -.167638063431D-07  .790000000000D+02
     .432006000000D+06  .400000000000D+01
23 12  7 13  2  0  0.0  .186019577086D-03 -.386535248253D-11  .000000000000D+00
     .130000000000D+02  .715000000000D+02  .449875881993D-08 -.234299372748D+01
     .357627868652D-05  .811582081951D-02  .499561429024D-05  .515361293793D+04
     .439200000000D+06 -.912696123123D-07  .123679532915D+00 -.117346644402D-06
     .959927681298D+00  .283625000000D+03 -.297924372955D+01 -.814605360154D-08
     .635740766869D-10  .100000000000D+01  .169600000000D+04  .000000000000D+00
     .240000000000D+01  .000000000000D+00 -.200234353542D-07  .130000000000D+02
     .432006000000D+06  .400000000000D+01
25 12  7 13  2  0  0.0  .371458008885D-04  .795807864051D-12  .000000000000D+00
     .810000000000D+02 -.490000000000D+02  .416767360033D-08  .841949526349D+00
    -.276975333691D-05  .180928036571D-02  .852718949318D-05  .515369207382D+04
     .439200000000D+06 -.521540641785D-07  .219586065388D+01  .931322574615D-08
     .969215663334D+00  .219468750000D+03  .752869588886D+00 -.787211361942D-08
     .226795161215D-09  .100000000000D+01  .169600000000D+04  .000000000000D+00
     .240000000000D+01  .000000000000D+00  .558793544769D-08  .810000000000D+02
     .432006000000D+06  .400000000000D+01
26 12  7 13  2  0  0.0 -.348107889295D-03  .112549969344D-10  .000000000000D+00
     .420000000000D+02  .619062500000D+02  .384908890143D-08 -.248546351417D+01
     .322982668877D-05  .208023178857D-01  .444240868092D-05  .515366953468D+04
     .439200000000D+06  .249594449997D-06  .197373539617D+00 -.391155481339D-07
     .983074143773D+00  .304593750000D+03  .120321597569D+01 -.756210070613D-08
     .950039572962D-10  .100000000000D+01  .169600000000D+04  .000000000000D+00
     .240000000000D+01  .000000000000D+00 -.605359673500D-08  .420000000000D+02
     .432006000000D+06  .400000000000D+01
27 12  7 13  2  0  0.0  .408591236919D-03  .409272615798D-11  .000000000000D+00
     .112000000000D+03 -.308437500000D+02  .396087927223D-08 -.163083356898D+01
    -.122375786304D-05  .217257412151D-01  .502355396748D-05  .515371154213D+04
     .439200000000D+06 -.433996319771D-06  .112102233449D+01  .294297933578D-06
     .981940559274D+00  .299062500000D+03 -.106171847361D+01 -.806355016495D-08
     .821462788651D-11  .100000000000D+01  .169600000000D+04  .000000000000D+00
     .240000000000D+01  .000000000000D+00 -.419095158577D-08  .112000000000D+03
     .432006000000D+06  .400000000000D+01
28 12  7 13  2  0  0.0  .164320226759D-03  .386535248253D-11  .000000000000D+00
     .840000000000D+02 -.502812500000D+02  .403802534282D-08 -.502326442358D+00
    -.254251062870D-05  .179013815941D-01  .862590968609D-05  .515363420105D+04
     .439200000000D+06 -.154599547386D-06  .225533331502D+01  .197440385818D-06
     .979582889776D+00  .229906250000D+03 -.182549894002D+01 -.806605026908D-08
     .302869758598D-09  .100000000000D+01  .169600000000D+04  .000000000000D+00
     .240000000000D+01  .000000000000D+00 -.107102096081D-07  .840000000000D+02
     .432006000000D+06  .400000000000D+01
29 12  7 13  2  0  0.0  .332991592586D-03  .397903932026D-11  .000000000000D+00
     .100000000000D+03 -.130312500000D+02  .474412618333D-08  .172382094747D+01
    -.657513737679D-06  .210962723941D-02  .703521072865D-05  .515354818916D+04
     .439200000000D+06  .502914190292D-07 -.298618615066D+01 -.167638063431D-07
     .964111119372D+00  .249781250000D+03 -.111099106572D+01 -.799176146037D-08
     .292869342041D-09  .100000000000D+01  .169600000000D+04  .000000000000D+00
     .340000000000D+01  .000000000000D+00 -.931322574615D-08  .100000000000D+03
     .432006000000D+06  .400000000000D+01
30 12  7 13  2  0  0.0 -.294637866318D-03 -.244426701101D-10  .000000000000D+00
     .870000000000D+02 -.594687500000D+02  .435803867266D-08 -.123080405934D+01
    -.279583036900D-05  .112173155649D-01  .877305865288D-05  .515368178177D+04
     .439200000000D+06 -.135973095894D-06  .210451811319D+01  .216066837311D-06
     .960380918189D+00  .211000000000D+03  .157996461141D+01 -.807069331963D-08
     .249296098469D-09  .100000000000D+01  .169600000000D+04  .000000000000D+00
     .965000000000D+01  .000000000000D+00 -.419095158577D-08  .870000000000D+02
     .432006000000D+06  .400000000000D+01
31 12  7 13  2  0  0.0  .259807333350D-03  .284217094304D-11  .000000000000D+00
     .550000000000D+02 -.504062500000D+02  .392444918335D-08  .235310513051D+01
    -.246055424213D-05  .774371006992D-02  .487081706524D-05  .515368578148D+04
     .439200000000D+06  .428408384323D-07  .117654009461D+01  .745058059692D-07
     .980811360604D+00  .295093750000D+03 -.858997621705D+00 -.784032658107D-08
    -.168221292806D-09  .100000000000D+01  .169600000000D+04  .000000000000D+00
     .240000000000D+01  .000000000000D+00 -.130385160446D-07  .550000000000D+02
     .432006000000D+06  .400000000000D+01
32 12  7 13  2  0  0.0 -.464494340122D-03 -.420641299570D-11  .000000000000D+00
     .300000000000D+02  .742812500000D+02  .452697428094D-08  .292587657165D+01
     .378675758839D-05  .118024382973D-01  .946968793869D-05  .515363942909D+04
     .439200000000D+06 -.894069671631D-07 -.849089972440D+00  .195577740669D-06
     .951164437737D+00  .189437500000D+03 -.556807192523D+00 -.782711174491D-08
    -.243938732456D-09  .100000000000D+01  .169600000000D+04  .000000000000D+00
     .240000000000D+01  .000000000000D+00 -.279396772385D-08  .300000000000D+02
     .432006000000D+06  .400000000000D+01
21 12  7 13  1 59 44.0 -.236203428358D-03 -.250111042988D-11  .000000000000D+00
     .700000000000D+01 -.121875000000D+02  .556701760291D-08  .146448206304D+01
    -.640749931335D-06  .192803463433D-01  .804290175438D-05  .515358957291D+04
     .439184000000D+06 -.450760126114D-06 -.197943944982D+01  .875443220139D-07
     .931120836212D+00  .217375000000D+03 -.223498604096D+01 -.858464329914D-08
    -.286440502825D-09  .100000000000D+01  .169600000000D+04  .000000000000D+00
     .240000000000D+01  .000000000000D+00 -.111758708954D-07  .700000000000D+01
     .433326000000D+06  .400000000000D+01
